[{"OBJECT_NAME":"STARLINK-5775","OBJECT_ID":"2023-065A","EPOCH":"2025-08-12T04:09:13.666176","MEAN_MOTION":15.02521166,"ECCENTRICITY":0.0001361,"INCLINATION":43.0036,"RA_OF_ASC_NODE":269.1774,"ARG_OF_PERICENTER":271.4415,"MEAN_ANOMALY":88.6271,"EPHEMERIS_TYPE":0,"CLASSIFICATION_TYPE":"U","NORAD_CAT_ID":56503,"ELEMENT_SET_NO":999,"REV_AT_EPOCH":12432,"BSTAR":7.1343e-5,"MEAN_MOTION_DOT":7.6e-6,"MEAN_MOTION_DDOT":0},{"OBJECT_NAME":"STARLINK-5716","OBJECT_ID":"2023-065B","EPOCH":"2025-08-12T04:04:25.792608","MEAN_MOTION":15.02521375,"ECCENTRICITY":0.0001393,"INCLINATION":43.0027,"RA_OF_ASC_NODE":269.1527,"ARG_OF_PERICENTER":271.1514,"MEAN_ANOMALY":88.9169,"EPHEMERIS_TYPE":0,"CLASSIFICATION_TYPE":"U","NORAD_CAT_ID":56504,"ELEMENT_SET_NO":999,"REV_AT_EPOCH":12432,"BSTAR":7.1117e-5,"MEAN_MOTION_DOT":7.57e-6,"MEAN_MOTION_DDOT":0},{"OBJECT_NAME":"STARLINK-5763","OBJECT_ID":"2023-065C","EPOCH":"2025-08-11T20:02:34.977120","MEAN_MOTION":15.02530505,"ECCENTRICITY":9.19e-5,"INCLINATION":43.0017,"RA_OF_ASC_NODE":270.9412,"ARG_OF_PERICENTER":268.6093,"MEAN_ANOMALY":91.4644,"EPHEMERIS_TYPE":0,"CLASSIFICATION_TYPE":"U","NORAD_CAT_ID":56505,"ELEMENT_SET_NO":999,"REV_AT_EPOCH":12505,"BSTAR":-8.6834e-5,"MEAN_MOTION_DOT":-1.376e-5,"MEAN_MOTION_DDOT":0},{"OBJECT_NAME":"STARLINK-5340","OBJECT_ID":"2023-065D","EPOCH":"2025-08-12T04:12:47.840544","MEAN_MOTION":15.02528423,"ECCENTRICITY":0.000138,"INCLINATION":43.0039,"RA_OF_ASC_NODE":256.1788,"ARG_OF_PERICENTER":287.9519,"MEAN_ANOMALY":72.1173,"EPHEMERIS_TYPE":0,"CLASSIFICATION_TYPE":"U","NORAD_CAT_ID":56506,"ELEMENT_SET_NO":999,"REV_AT_EPOCH":12447,"BSTAR":6.5852e-5,"MEAN_MOTION_DOT":6.86e-6,"MEAN_MOTION_DDOT":0},{"OBJECT_NAME":"STARLINK-5333","OBJECT_ID":"2023-065E","EPOCH":"2025-08-11T16:58:36.769728","MEAN_MOTION":15.02539208,"ECCENTRICITY":0.0001706,"INCLINATION":43.0029,"RA_OF_ASC_NODE":232.6588,"ARG_OF_PERICENTER":277.9812,"MEAN_ANOMALY":82.0837,"EPHEMERIS_TYPE":0,"CLASSIFICATION_TYPE":"U","NORAD_CAT_ID":56507,"ELEMENT_SET_NO":999,"REV_AT_EPOCH":12548,"BSTAR":3.3825e-5,"MEAN_MOTION_DOT":2.53e-6,"MEAN_MOTION_DDOT":0},{"OBJECT_NAME":"STARLINK-5335","OBJECT_ID":"2023-065F","EPOCH":"2025-08-11T19:57:46.671552","MEAN_MOTION":15.02533961,"ECCENTRICITY":0.0001262,"INCLINATION":43.0035,"RA_OF_ASC_NODE":270.9144,"ARG_OF_PERICENTER":279.6285,"MEAN_ANOMALY":80.4415,"EPHEMERIS_TYPE":0,"CLASSIFICATION_TYPE":"U","NORAD_CAT_ID":56508,"ELEMENT_SET_NO":999,"REV_AT_EPOCH":12505,"BSTAR":2.7472e-5,"MEAN_MOTION_DOT":1.67e-6,"MEAN_MOTION_DDOT":0},{"OBJECT_NAME":"STARLINK-5334","OBJECT_ID":"2023-065G","EPOCH":"2025-08-12T03:43:37.488864","MEAN_MOTION":15.02533899,"ECCENTRICITY":0.0001614,"INCLINATION":43.0041,"RA_OF_ASC_NODE":269.0404,"ARG_OF_PERICENTER":269.3459,"MEAN_ANOMALY":90.7199,"EPHEMERIS_TYPE":0,"CLASSIFICATION_TYPE":"U","NORAD_CAT_ID":56509,"ELEMENT_SET_NO":999,"REV_AT_EPOCH":12432,"BSTAR":0.00020366,"MEAN_MOTION_DOT":2.548e-5,"MEAN_MOTION_DDOT":0},{"OBJECT_NAME":"STARLINK-5339","OBJECT_ID":"2023-065H","EPOCH":"2025-08-12T03:53:13.915968","MEAN_MOTION":15.0252854,"ECCENTRICITY":0.0001387,"INCLINATION":43.0036,"RA_OF_ASC_NODE":269.0917,"ARG_OF_PERICENTER":270.9491,"MEAN_ANOMALY":89.1192,"EPHEMERIS_TYPE":0,"CLASSIFICATION_TYPE":"U","NORAD_CAT_ID":56510,"ELEMENT_SET_NO":999,"REV_AT_EPOCH":12432,"BSTAR":7.6238e-5,"MEAN_MOTION_DOT":8.26e-6,"MEAN_MOTION_DDOT":0},{"OBJECT_NAME":"STARLINK-5351","OBJECT_ID":"2023-065J","EPOCH":"2025-08-12T10:01:44.702400","MEAN_MOTION":15.02536722,"ECCENTRICITY":0.0001296,"INCLINATION":43.0032,"RA_OF_ASC_NODE":267.5667,"ARG_OF_PERICENTER":274.9515,"MEAN_ANOMALY":85.1179,"EPHEMERIS_TYPE":0,"CLASSIFICATION_TYPE":"U","NORAD_CAT_ID":56511,"ELEMENT_SET_NO":999,"REV_AT_EPOCH":12436,"BSTAR":7.5725e-5,"MEAN_MOTION_DOT":8.19e-6,"MEAN_MOTION_DDOT":0},{"OBJECT_NAME":"STARLINK-5349","OBJECT_ID":"2023-065K","EPOCH":"2025-08-11T19:49:47.166240","MEAN_MOTION":15.02532658,"ECCENTRICITY":0.0001248,"INCLINATION":43.003,"RA_OF_ASC_NODE":270.8634,"ARG_OF_PERICENTER":268.2309,"MEAN_ANOMALY":91.839,"EPHEMERIS_TYPE":0,"CLASSIFICATION_TYPE":"U","NORAD_CAT_ID":56512,"ELEMENT_SET_NO":999,"REV_AT_EPOCH":12505,"BSTAR":-1.7188e-5,"MEAN_MOTION_DOT":-4.36e-6,"MEAN_MOTION_DDOT":0},{"OBJECT_NAME":"STARLINK-5329","OBJECT_ID":"2023-065L","EPOCH":"2025-08-12T10:00:10.795968","MEAN_MOTION":15.02517703,"ECCENTRICITY":0.0001176,"INCLINATION":43.0019,"RA_OF_ASC_NODE":267.5625,"ARG_OF_PERICENTER":271.3592,"MEAN_ANOMALY":88.7116,"EPHEMERIS_TYPE":0,"CLASSIFICATION_TYPE":"U","NORAD_CAT_ID":56513,"ELEMENT_SET_NO":999,"REV_AT_EPOCH":12436,"BSTAR":-0.00011126,"MEAN_MOTION_DOT":-1.705e-5,"MEAN_MOTION_DDOT":0},{"OBJECT_NAME":"STARLINK-5348","OBJECT_ID":"2023-065N","EPOCH":"2025-08-11T19:33:48.617856","MEAN_MOTION":15.02538045,"ECCENTRICITY":0.0001378,"INCLINATION":43.0032,"RA_OF_ASC_NODE":270.7884,"ARG_OF_PERICENTER":270.8851,"MEAN_ANOMALY":89.1833,"EPHEMERIS_TYPE":0,"CLASSIFICATION_TYPE":"U","NORAD_CAT_ID":56515,"ELEMENT_SET_NO":999,"REV_AT_EPOCH":12505,"BSTAR":-2.4942e-5,"MEAN_MOTION_DOT":-5.41e-6,"MEAN_MOTION_DDOT":0},{"OBJECT_NAME":"STARLINK-5342","OBJECT_ID":"2023-065P","EPOCH":"2025-08-12T10:03:22.022496","MEAN_MOTION":15.02520253,"ECCENTRICITY":0.0001245,"INCLINATION":43.0029,"RA_OF_ASC_NODE":267.5755,"ARG_OF_PERICENTER":279.549,"MEAN_ANOMALY":80.5212,"EPHEMERIS_TYPE":0,"CLASSIFICATION_TYPE":"U","NORAD_CAT_ID":56516,"ELEMENT_SET_NO":999,"REV_AT_EPOCH":12436,"BSTAR":-8.8386e-7,"MEAN_MOTION_DOT":-2.16e-6,"MEAN_MOTION_DDOT":0},{"OBJECT_NAME":"STARLINK-5345","OBJECT_ID":"2023-065Q","EPOCH":"2025-08-12T03:19:39.285696","MEAN_MOTION":15.02538296,"ECCENTRICITY":0.0001221,"INCLINATION":43.0034,"RA_OF_ASC_NODE":268.9116,"ARG_OF_PERICENTER":266.9651,"MEAN_ANOMALY":93.1052,"EPHEMERIS_TYPE":0,"CLASSIFICATION_TYPE":"U","NORAD_CAT_ID":56517,"ELEMENT_SET_NO":999,"REV_AT_EPOCH":12432,"BSTAR":5.1669e-5,"MEAN_MOTION_DOT":4.94e-6,"MEAN_MOTION_DDOT":0},{"OBJECT_NAME":"STARLINK-5346","OBJECT_ID":"2023-065R","EPOCH":"2025-08-11T19:29:00.502368","MEAN_MOTION":15.02543157,"ECCENTRICITY":0.0001386,"INCLINATION":43.0033,"RA_OF_ASC_NODE":270.7614,"ARG_OF_PERICENTER":270.848,"MEAN_ANOMALY":89.2203,"EPHEMERIS_TYPE":0,"CLASSIFICATION_TYPE":"U","NORAD_CAT_ID":56518,"ELEMENT_SET_NO":999,"REV_AT_EPOCH":12505,"BSTAR":-4.4907e-5,"MEAN_MOTION_DOT":-8.1e-6,"MEAN_MOTION_DDOT":0},{"OBJECT_NAME":"STARLINK-6313","OBJECT_ID":"2023-065S","EPOCH":"2025-08-11T11:15:59.456160","MEAN_MOTION":15.02532682,"ECCENTRICITY":0.0001391,"INCLINATION":43.0033,"RA_OF_ASC_NODE":272.4921,"ARG_OF_PERICENTER":270.9989,"MEAN_ANOMALY":89.0694,"EPHEMERIS_TYPE":0,"CLASSIFICATION_TYPE":"U","NORAD_CAT_ID":56519,"ELEMENT_SET_NO":999,"REV_AT_EPOCH":12500,"BSTAR":5.3719e-5,"MEAN_MOTION_DOT":5.22e-6,"MEAN_MOTION_DDOT":0},{"OBJECT_NAME":"STARLINK-6344","OBJECT_ID":"2023-065T","EPOCH":"2025-08-12T03:22:52.061376","MEAN_MOTION":15.02529937,"ECCENTRICITY":0.0001567,"INCLINATION":43.0057,"RA_OF_ASC_NODE":268.9333,"ARG_OF_PERICENTER":275.2653,"MEAN_ANOMALY":84.8011,"EPHEMERIS_TYPE":0,"CLASSIFICATION_TYPE":"U","NORAD_CAT_ID":56520,"ELEMENT_SET_NO":999,"REV_AT_EPOCH":12432,"BSTAR":2.741e-5,"MEAN_MOTION_DOT":1.66e-6,"MEAN_MOTION_DDOT":0},{"OBJECT_NAME":"STARLINK-6333","OBJECT_ID":"2023-065U","EPOCH":"2025-08-12T10:38:21.336000","MEAN_MOTION":15.02524302,"ECCENTRICITY":0.0001311,"INCLINATION":43.0028,"RA_OF_ASC_NODE":266.8991,"ARG_OF_PERICENTER":269.7898,"MEAN_ANOMALY":90.2794,"EPHEMERIS_TYPE":0,"CLASSIFICATION_TYPE":"U","NORAD_CAT_ID":56521,"ELEMENT_SET_NO":999,"REV_AT_EPOCH":12437,"BSTAR":-5.6986e-5,"MEAN_MOTION_DOT":-9.73e-6,"MEAN_MOTION_DDOT":0},{"OBJECT_NAME":"STARLINK-6327","OBJECT_ID":"2023-065V","EPOCH":"2025-08-11T11:17:35.517408","MEAN_MOTION":15.0253456,"ECCENTRICITY":0.0001961,"INCLINATION":43.0046,"RA_OF_ASC_NODE":272.5012,"ARG_OF_PERICENTER":289.6735,"MEAN_ANOMALY":70.3896,"EPHEMERIS_TYPE":0,"CLASSIFICATION_TYPE":"U","NORAD_CAT_ID":56522,"ELEMENT_SET_NO":999,"REV_AT_EPOCH":12500,"BSTAR":-0.00013954,"MEAN_MOTION_DOT":-2.088e-5,"MEAN_MOTION_DDOT":0},{"OBJECT_NAME":"STARLINK-6328","OBJECT_ID":"2023-065W","EPOCH":"2025-08-12T04:21:49.647168","MEAN_MOTION":15.02533789,"ECCENTRICITY":0.0001368,"INCLINATION":43.0035,"RA_OF_ASC_NODE":268.3774,"ARG_OF_PERICENTER":270.909,"MEAN_ANOMALY":89.1596,"EPHEMERIS_TYPE":0,"CLASSIFICATION_TYPE":"U","NORAD_CAT_ID":56523,"ELEMENT_SET_NO":999,"REV_AT_EPOCH":12433,"BSTAR":4.5609e-5,"MEAN_MOTION_DOT":4.12e-6,"MEAN_MOTION_DDOT":0},{"OBJECT_NAME":"STARLINK-6323","OBJECT_ID":"2023-065X","EPOCH":"2025-08-11T20:35:58.964640","MEAN_MOTION":15.02529075,"ECCENTRICITY":0.0001302,"INCLINATION":43.0033,"RA_OF_ASC_NODE":270.2489,"ARG_OF_PERICENTER":267.6354,"MEAN_ANOMALY":92.4339,"EPHEMERIS_TYPE":0,"CLASSIFICATION_TYPE":"U","NORAD_CAT_ID":56524,"ELEMENT_SET_NO":999,"REV_AT_EPOCH":12506,"BSTAR":-4.1358e-5,"MEAN_MOTION_DOT":-7.62e-6,"MEAN_MOTION_DDOT":0},{"OBJECT_NAME":"STARLINK-6329","OBJECT_ID":"2023-065Y","EPOCH":"2025-08-12T04:12:14.409792","MEAN_MOTION":15.02529892,"ECCENTRICITY":0.0001234,"INCLINATION":43.0031,"RA_OF_ASC_NODE":268.3345,"ARG_OF_PERICENTER":273.0088,"MEAN_ANOMALY":87.0613,"EPHEMERIS_TYPE":0,"CLASSIFICATION_TYPE":"U","NORAD_CAT_ID":56525,"ELEMENT_SET_NO":999,"REV_AT_EPOCH":12433,"BSTAR":2.8269e-5,"MEAN_MOTION_DOT":1.78e-6,"MEAN_MOTION_DDOT":0},{"OBJECT_NAME":"STARLINK-6317","OBJECT_ID":"2023-065Z","EPOCH":"2025-08-12T09:12:12.358368","MEAN_MOTION":15.02542058,"ECCENTRICITY":0.00016,"INCLINATION":43.0039,"RA_OF_ASC_NODE":267.3098,"ARG_OF_PERICENTER":270.2619,"MEAN_ANOMALY":89.804,"EPHEMERIS_TYPE":0,"CLASSIFICATION_TYPE":"U","NORAD_CAT_ID":56526,"ELEMENT_SET_NO":999,"REV_AT_EPOCH":12436,"BSTAR":-1.2396e-5,"MEAN_MOTION_DOT":-3.71e-6,"MEAN_MOTION_DDOT":0}]
